[{"OBJECT_NAME":"STARLINK-4357","OBJECT_ID":"2022-105Q","EPOCH":"2026-03-09T16:04:00.382368","MEAN_MOTION":15.05650154,"ECCENTRICITY":0.00029035,"INCLINATION":97.602,"RA_OF_ASC_NODE":311.1286,"ARG_OF_PERICENTER":81.4497,"MEAN_ANOMALY":278.7059,"EPHEMERIS_TYPE":0,"CLASSIFICATION_TYPE":"U","NORAD_CAT_ID":53662,"ELEMENT_SET_NO":999,"REV_AT_EPOCH":19329,"BSTAR":1.5473544e-5,"MEAN_MOTION_DOT":1.62e-6,"MEAN_MOTION_DDOT":0},{"OBJECT_NAME":"CZ-6A DEB","OBJECT_ID":"2022-151BA","EPOCH":"2026-03-08T17:30:58.855968","MEAN_MOTION":14.9439792,"ECCENTRICITY":0.00472807,"INCLINATION":98.5596,"RA_OF_ASC_NODE":128.1704,"ARG_OF_PERICENTER":200.9968,"MEAN_ANOMALY":158.931,"EPHEMERIS_TYPE":0,"CLASSIFICATION_TYPE":"U","NORAD_CAT_ID":54307,"ELEMENT_SET_NO":999,"REV_AT_EPOCH":10452,"BSTAR":0.0069448926,"MEAN_MOTION_DOT":0.00077164,"MEAN_MOTION_DDOT":0}]
